{
  "type": "FeatureCollection",
  "features": [
    {
      "type": "Feature",
      "properties": {
        "zone_id": "Zona_A",
        "name": "Zona A"
      },
      "geometry": {
        "type": "Polygon",
        "coordinates": [[[ -78.60, -0.40 ], [ -78.50, -0.40 ], [ -78.50, -0.30 ], [ -78.60, -0.30 ], [ -78.60, -0.40 ]]]
      }
    },
    {
      "type": "Feature",
      "properties": {
        "zone_id": "Zona_B",
        "name": "Zona B"
      },
      "geometry": {
        "type": "Polygon",
        "coordinates": [[[ -78.45, -0.25 ], [ -78.35, -0.25 ], [ -78.35, -0.15 ], [ -78.45, -0.15 ], [ -78.45, -0.25 ]]]
      }
    }
  ]
}
